{
  "type": "FeatureCollection",
  "generator": "overpass-turbo",
  "copyright": "The data included in this document is from www.openstreetmap.org. The data is made available under ODbL.",
  "timestamp": "2026-08-12T09:15:12Z",
  "features": [
    {
      "type": "Feature",
      "properties": {
        "@id": "way/24884767",
        "highway": "primary",
        "lanes": "4",
        "motorcycle": "yes",
        "name": "Jalan Tunjungan",
        "oneway": "yes",
        "smoothness": "good",
        "surface": "asphalt",
        "width": "4"
      },
      "geometry": {
        "type": "LineString",
        "coordinates": [
          [
            112.7370825,
            -7.255972
          ],
          [
            112.7371723,
            -7.2561877
          ],
          [
            112.7372174,
            -7.256301
          ],
          [
            112.7375645,
            -7.25698
          ],
          [
            112.7377788,
            -7.2573677
          ],
          [
            112.737916,
            -7.2576721
          ],
          [
            112.7379476,
            -7.2577306
          ],
          [
            112.7380837,
            -7.2579823
          ],
          [
            112.7381425,
            -7.2580912
          ],
          [
            112.7383706,
            -7.2584822
          ],
          [
            112.7383877,
            -7.2585129
          ],
          [
            112.7384092,
            -7.258554
          ],
          [
            112.7384532,
            -7.2586456
          ],
          [
            112.7385352,
            -7.2587731
          ],
          [
            112.7387487,
            -7.259159
          ],
          [
            112.7388132,
            -7.2592805
          ],
          [
            112.7388332,
            -7.2593136
          ],
          [
            112.7388584,
            -7.2593548
          ],
          [
            112.7391107,
            -7.2597731
          ],
          [
            112.7391471,
            -7.2598259
          ],
          [
            112.7397133,
            -7.2607746
          ],
          [
            112.7397904,
            -7.2609038
          ]
        ]
      },
      "id": "way/24884767"
    },
    {
      "type": "Feature",
      "properties": {
        "@id": "way/70398187",
        "highway": "secondary",
        "name": "Jalan Praban",
        "oneway": "yes"
      },
      "geometry": {
        "type": "LineString",
        "coordinates": [
          [
            112.7345231,
            -7.2558139
          ],
          [
            112.7344881,
            -7.2558056
          ],
          [
            112.7343849,
            -7.2557581
          ],
          [
            112.7342414,
            -7.2556822
          ],
          [
            112.734209,
            -7.2556593
          ]
        ]
      },
      "id": "way/70398187"
    },
    {
      "type": "Feature",
      "properties": {
        "@id": "way/93865170",
        "highway": "tertiary",
        "lanes": "1",
        "motorcycle": "yes",
        "name": "Jalan Baliwerti",
        "oneway:conditional": "yes @ 06:00-18:00",
        "smoothness": "good",
        "surface": "asphalt",
        "width": "8"
      },
      "geometry": {
        "type": "LineString",
        "coordinates": [
          [
            112.7367147,
            -7.2511852
          ],
          [
            112.7366526,
            -7.2512291
          ],
          [
            112.7366222,
            -7.251266
          ],
          [
            112.7365935,
            -7.2513209
          ],
          [
            112.7365344,
            -7.2514489
          ],
          [
            112.7364352,
            -7.2516657
          ],
          [
            112.7363782,
            -7.2517937
          ],
          [
            112.736325,
            -7.251914
          ],
          [
            112.7363165,
            -7.2519378
          ],
          [
            112.736294,
            -7.2519885
          ],
          [
            112.7362632,
            -7.2520789
          ],
          [
            112.736198,
            -7.2523024
          ],
          [
            112.7361158,
            -7.2525618
          ],
          [
            112.7360318,
            -7.2528698
          ],
          [
            112.7359728,
            -7.2530614
          ],
          [
            112.7359513,
            -7.2531438
          ],
          [
            112.7359237,
            -7.2532686
          ],
          [
            112.7358735,
            -7.2535323
          ],
          [
            112.7358387,
            -7.2536999
          ],
          [
            112.7358065,
            -7.2538356
          ],
          [
            112.7357662,
            -7.2539979
          ],
          [
            112.7356697,
            -7.2542534
          ],
          [
            112.7355678,
            -7.2544716
          ],
          [
            112.7354819,
            -7.2546219
          ],
          [
            112.7353907,
            -7.2547669
          ],
          [
            112.7352405,
            -7.255021
          ],
          [
            112.7351724,
            -7.2551228
          ],
          [
            112.7351429,
            -7.2551607
          ],
          [
            112.7351237,
            -7.255188
          ],
          [
            112.7350474,
            -7.2552963
          ],
          [
            112.7349883,
            -7.2553678
          ],
          [
            112.7349361,
            -7.2554135
          ],
          [
            112.7348127,
            -7.2555292
          ],
          [
            112.7347336,
            -7.2556116
          ],
          [
            112.7346087,
            -7.2557301
          ],
          [
            112.7345231,
            -7.2558139
          ]
        ]
      },
      "id": "way/93865170"
    },
    {
      "type": "Feature",
      "properties": {
        "@id": "way/155884552",
        "access": "private",
        "highway": "living_street",
        "lanes": "1",
        "motorcycle": "yes",
        "name": "Jalan Blauran IV",
        "oneway": "no",
        "smoothness": "intermediate",
        "surface": "paving_stones",
        "width": "2"
      },
      "geometry": {
        "type": "LineString",
        "coordinates": [
          [
            112.735492,
            -7.2566603
          ],
          [
            112.7353729,
            -7.2566452
          ],
          [
            112.7352481,
            -7.256628
          ],
          [
            112.735059,
            -7.256596
          ],
          [
            112.7347578,
            -7.2565331
          ],
          [
            112.7342418,
            -7.2563944
          ]
        ]
      },
      "id": "way/155884552"
    },
    {
      "type": "Feature",
      "properties": {
        "@id": "way/155884574",
        "access": "private",
        "highway": "living_street",
        "lanes": "1",
        "motorcar": "no",
        "motorcycle": "no",
        "name": "Jalan Blauran II",
        "oneway": "no",
        "smoothness": "intermediate",
        "surface": "paving_stones",
        "width": "2"
      },
      "geometry": {
        "type": "LineString",
        "coordinates": [
          [
            112.7351518,
            -7.2572442
          ],
          [
            112.7340214,
            -7.2569038
          ]
        ]
      },
      "id": "way/155884574"
    },
    {
      "type": "Feature",
      "properties": {
        "@id": "way/155884682",
        "access": "private",
        "highway": "living_street",
        "motorcycle": "yes",
        "name": "Jalan Blauran Gang V"
      },
      "geometry": {
        "type": "LineString",
        "coordinates": [
          [
            112.7356293,
            -7.256294
          ],
          [
            112.7351895,
            -7.2562792
          ],
          [
            112.7349816,
            -7.2562818
          ],
          [
            112.7348484,
            -7.25627
          ],
          [
            112.7347054,
            -7.2562486
          ],
          [
            112.7343094,
            -7.2561271
          ]
        ]
      },
      "id": "way/155884682"
    },
    {
      "type": "Feature",
      "properties": {
        "@id": "way/155884717",
        "access": "private",
        "alt_name": "Jalan Blauran 3",
        "highway": "living_street",
        "lanes": "1",
        "motorcar": "no",
        "motorcycle": "destination",
        "name": "Jalan Blauran III",
        "oneway": "no",
        "smoothness": "intermediate",
        "surface": "concrete",
        "width": "2"
      },
      "geometry": {
        "type": "LineString",
        "coordinates": [
          [
            112.735281,
            -7.2569678
          ],
          [
            112.7352197,
            -7.2569464
          ],
          [
            112.7341233,
            -7.2566504
          ]
        ]
      },
      "id": "way/155884717"
    },
    {
      "type": "Feature",
      "properties": {
        "@id": "way/155884758",
        "highway": "living_street",
        "lanes": "1",
        "motorcar": "no",
        "motorcycle": "no",
        "name": "Jalan Kebangsreng 6",
        "oneway": "no",
        "smoothness": "good",
        "surface": "paving_stones",
        "width": "2"
      },
      "geometry": {
        "type": "LineString",
        "coordinates": [
          [
            112.7371851,
            -7.2580712
          ],
          [
            112.7371995,
            -7.2580632
          ],
          [
            112.7372092,
            -7.2580539
          ],
          [
            112.7372112,
            -7.2580329
          ],
          [
            112.7371839,
            -7.2578644
          ],
          [
            112.7371636,
            -7.2577386
          ],
          [
            112.7371529,
            -7.2577053
          ],
          [
            112.7371368,
            -7.2576854
          ],
          [
            112.73711,
            -7.2576787
          ],
          [
            112.7368444,
            -7.2577053
          ],
          [
            112.7366875,
            -7.257708
          ],
          [
            112.7365748,
            -7.2576947
          ],
          [
            112.7361497,
            -7.2576022
          ]
        ]
      },
      "id": "way/155884758"
    },
    {
      "type": "Feature",
      "properties": {
        "@id": "way/155885044",
        "highway": "living_street",
        "motorcar": "no",
        "motorcycle": "yes"
      },
      "geometry": {
        "type": "LineString",
        "coordinates": [
          [
            112.7361497,
            -7.2576022
          ],
          [
            112.7359539,
            -7.2575523
          ],
          [
            112.7359345,
            -7.2575503
          ],
          [
            112.7359168,
            -7.2575557
          ],
          [
            112.7359067,
            -7.2575663
          ],
          [
            112.7359003,
            -7.2575799
          ],
          [
            112.7358641,
            -7.2577532
          ],
          [
            112.7358017,
            -7.2580093
          ],
          [
            112.7357943,
            -7.2580539
          ],
          [
            112.7357823,
            -7.2580635
          ],
          [
            112.7357757,
            -7.2580678
          ],
          [
            112.7357662,
            -7.2580705
          ],
          [
            112.7357133,
            -7.2580599
          ],
          [
            112.7357038,
            -7.2580988
          ],
          [
            112.7355946,
            -7.2585608
          ],
          [
            112.7355998,
            -7.2585843
          ],
          [
            112.735616,
            -7.2585993
          ],
          [
            112.735845,
            -7.2587144
          ],
          [
            112.7358799,
            -7.2587263
          ],
          [
            112.7360216,
            -7.2587864
          ],
          [
            112.7361129,
            -7.2588036
          ],
          [
            112.7362393,
            -7.258843
          ],
          [
            112.7364789,
            -7.2588949
          ],
          [
            112.7365807,
            -7.2589232
          ],
          [
            112.7368006,
            -7.2589771
          ]
        ]
      },
      "id": "way/155885044"
    },
    {
      "type": "Feature",
      "properties": {
        "@id": "way/160223681",
        "access": "destination",
        "highway": "living_street",
        "lanes": "1",
        "motorcar": "no",
        "motorcycle": "yes",
        "name": "Jalan Praban Wetan III",
        "oneway": "no",
        "smoothness": "good",
        "surface": "paving_stones",
        "width": "2"
      },
      "geometry": {
        "type": "LineString",
        "coordinates": [
          [
            112.7368437,
            -7.2553509
          ],
          [
            112.7368072,
            -7.2553493
          ],
          [
            112.7367868,
            -7.2553503
          ],
          [
            112.7365353,
            -7.2553434
          ],
          [
            112.7362577,
            -7.2553088
          ],
          [
            112.7361286,
            -7.2552821
          ],
          [
            112.7358446,
            -7.2552217
          ],
          [
            112.7356964,
            -7.2551765
          ],
          [
            112.7352405,
            -7.255021
          ]
        ]
      },
      "id": "way/160223681"
    },
    {
      "type": "Feature",
      "properties": {
        "@id": "way/160223776",
        "highway": "residential",
        "lanes": "1",
        "motorcycle": "yes",
        "name": "Jalan Praban Wetan II",
        "oneway": "no",
        "smoothness": "good",
        "surface": "paving_stones",
        "width": "2"
      },
      "geometry": {
        "type": "LineString",
        "coordinates": [
          [
            112.7361848,
            -7.2554681
          ],
          [
            112.736147,
            -7.255457
          ],
          [
            112.73573,
            -7.2554637
          ],
          [
            112.7356032,
            -7.2554723
          ],
          [
            112.7355365,
            -7.2554686
          ],
          [
            112.7353773,
            -7.2554384
          ],
          [
            112.7352465,
            -7.2554018
          ],
          [
            112.7351895,
            -7.2553812
          ],
          [
            112.7351479,
            -7.2553639
          ],
          [
            112.7350474,
            -7.2552963
          ]
        ]
      },
      "id": "way/160223776"
    },
    {
      "type": "Feature",
      "properties": {
        "@id": "way/160223785",
        "access": "destination",
        "highway": "residential",
        "lanes": "1",
        "motorcycle": "yes",
        "name": "Jalan Praban Wetan V",
        "oneway": "no",
        "smoothness": "good",
        "surface": "paving_stones",
        "width": "2"
      },
      "geometry": {
        "type": "LineString",
        "coordinates": [
          [
            112.736772,
            -7.2545719
          ],
          [
            112.7361469,
            -7.2545875
          ],
          [
            112.735879,
            -7.2545616
          ],
          [
            112.7358064,
            -7.254555
          ],
          [
            112.7357353,
            -7.2545337
          ],
          [
            112.7355678,
            -7.2544716
          ]
        ]
      },
      "id": "way/160223785"
    },
    {
      "type": "Feature",
      "properties": {
        "@id": "way/160223791",
        "access": "destination",
        "highway": "residential",
        "lanes": "1",
        "motorcycle": "yes",
        "name": "Jalan Praban Wetan IV",
        "oneway": "no",
        "smoothness": "good",
        "surface": "paving_stones",
        "width": "3"
      },
      "geometry": {
        "type": "LineString",
        "coordinates": [
          [
            112.7368028,
            -7.25495
          ],
          [
            112.7364743,
            -7.2549496
          ],
          [
            112.7363693,
            -7.2549367
          ],
          [
            112.7362362,
            -7.2549315
          ],
          [
            112.7360874,
            -7.2549215
          ],
          [
            112.7358299,
            -7.2548956
          ],
          [
            112.7357376,
            -7.2548714
          ],
          [
            112.7354192,
            -7.2547755
          ],
          [
            112.7353907,
            -7.2547669
          ]
        ]
      },
      "id": "way/160223791"
    },
    {
      "type": "Feature",
      "properties": {
        "@id": "way/221420271",
        "highway": "secondary",
        "name": "Jalan Genteng Kali",
        "oneway": "yes"
      },
      "geometry": {
        "type": "LineString",
        "coordinates": [
          [
            112.7370033,
            -7.2557715
          ],
          [
            112.7370736,
            -7.2557637
          ],
          [
            112.737146,
            -7.255761
          ],
          [
            112.737236,
            -7.2557656
          ],
          [
            112.7373111,
            -7.2557754
          ],
          [
            112.7376544,
            -7.25582
          ],
          [
            112.7381845,
            -7.2559007
          ],
          [
            112.7382376,
            -7.2559088
          ],
          [
            112.7386911,
            -7.2559636
          ],
          [
            112.7392852,
            -7.2559916
          ],
          [
            112.7394861,
            -7.2559943
          ],
          [
            112.7398163,
            -7.2560076
          ],
          [
            112.7399545,
            -7.2560092
          ],
          [
            112.7401287,
            -7.2560129
          ],
          [
            112.7404154,
            -7.2560047
          ],
          [
            112.7410068,
            -7.2559994
          ],
          [
            112.7413327,
            -7.2560021
          ],
          [
            112.7417099,
            -7.2560236
          ],
          [
            112.7425033,
            -7.2560929
          ],
          [
            112.7425401,
            -7.2560923
          ],
          [
            112.7425844,
            -7.2560788
          ],
          [
            112.7426237,
            -7.2560628
          ],
          [
            112.7427024,
            -7.2560098
          ],
          [
            112.7427061,
            -7.2559928
          ]
        ]
      },
      "id": "way/221420271"
    },
    {
      "type": "Feature",
      "properties": {
        "@id": "way/254757787",
        "highway": "secondary",
        "lanes": "4",
        "motorcycle": "yes",
        "name": "Jalan Kranggan",
        "oneway": "no",
        "smoothness": "good",
        "surface": "asphalt",
        "width": "12"
      },
      "geometry": {
        "type": "LineString",
        "coordinates": [
          [
            112.7280922,
            -7.2559882
          ],
          [
            112.7282446,
            -7.2560058
          ],
          [
            112.7282895,
            -7.2560078
          ],
          [
            112.7283886,
            -7.2560201
          ],
          [
            112.7287817,
            -7.256069
          ],
          [
            112.7290875,
            -7.2561022
          ],
          [
            112.7292405,
            -7.2560998
          ],
          [
            112.729467,
            -7.2560969
          ],
          [
            112.7297401,
            -7.2560892
          ],
          [
            112.7297956,
            -7.2560876
          ],
          [
            112.7299581,
            -7.2560912
          ],
          [
            112.7300218,
            -7.2560991
          ],
          [
            112.730096,
            -7.2561116
          ],
          [
            112.7302591,
            -7.2561607
          ],
          [
            112.7303391,
            -7.256185
          ],
          [
            112.7304586,
            -7.2562245
          ],
          [
            112.7307846,
            -7.2563118
          ],
          [
            112.7309013,
            -7.2563257
          ],
          [
            112.7309751,
            -7.2563281
          ],
          [
            112.7310589,
            -7.2563204
          ],
          [
            112.7312453,
            -7.2562912
          ],
          [
            112.7313878,
            -7.256253
          ],
          [
            112.7314503,
            -7.2562331
          ],
          [
            112.7315289,
            -7.2561961
          ],
          [
            112.7318858,
            -7.2559784
          ],
          [
            112.7319558,
            -7.2559304
          ],
          [
            112.7320413,
            -7.2558994
          ],
          [
            112.7321287,
            -7.2558812
          ],
          [
            112.7322277,
            -7.2558714
          ],
          [
            112.7323433,
            -7.2558757
          ],
          [
            112.7328945,
            -7.2559286
          ],
          [
            112.7331011,
            -7.2559656
          ],
          [
            112.7333642,
            -7.2559911
          ],
          [
            112.7333883,
            -7.2559918
          ],
          [
            112.7339316,
            -7.2560077
          ],
          [
            112.7342367,
            -7.2559863
          ]
        ]
      },
      "id": "way/254757787"
    },
    {
      "type": "Feature",
      "properties": {
        "@id": "way/254757802",
        "highway": "primary",
        "lanes": "2",
        "motorcycle": "yes",
        "name": "Jalan Blauran",
        "oneway": "yes",
        "smoothness": "intermediate",
        "surface": "asphalt",
        "width": "5"
      },
      "geometry": {
        "type": "LineString",
        "coordinates": [
          [
            112.7333029,
            -7.2581736
          ],
          [
            112.733442,
            -7.2579046
          ],
          [
            112.7335269,
            -7.2577265
          ],
          [
            112.7335634,
            -7.2576499
          ],
          [
            112.7336771,
            -7.2574142
          ],
          [
            112.7337477,
            -7.25727
          ],
          [
            112.7338238,
            -7.2571112
          ],
          [
            112.7338588,
            -7.2570438
          ],
          [
            112.7339403,
            -7.2568683
          ],
          [
            112.7340422,
            -7.2566313
          ],
          [
            112.7341627,
            -7.2563731
          ],
          [
            112.7341892,
            -7.2562787
          ],
          [
            112.7342137,
            -7.2560977
          ],
          [
            112.7342367,
            -7.2559863
          ]
        ]
      },
      "id": "way/254757802"
    },
    {
      "type": "Feature",
      "properties": {
        "@id": "way/254757803",
        "highway": "primary",
        "name": "Jalan Bubutan",
        "oneway": "yes"
      },
      "geometry": {
        "type": "LineString",
        "coordinates": [
          [
            112.7342367,
            -7.2559863
          ],
          [
            112.7342286,
            -7.2558549
          ],
          [
            112.734209,
            -7.2556593
          ],
          [
            112.7341421,
            -7.2553353
          ],
          [
            112.7341434,
            -7.2552315
          ],
          [
            112.7341454,
            -7.2551344
          ],
          [
            112.7341501,
            -7.2550799
          ],
          [
            112.7341601,
            -7.2550321
          ],
          [
            112.7341421,
            -7.2548876
          ],
          [
            112.7341457,
            -7.2547991
          ],
          [
            112.7341729,
            -7.2547093
          ],
          [
            112.7342485,
            -7.2545691
          ],
          [
            112.7345145,
            -7.2539224
          ],
          [
            112.7345711,
            -7.2537753
          ],
          [
            112.7347022,
            -7.2534079
          ],
          [
            112.7348199,
            -7.2530529
          ],
          [
            112.7348636,
            -7.2529147
          ],
          [
            112.7350394,
            -7.2524341
          ],
          [
            112.7351099,
            -7.2521813
          ],
          [
            112.7351748,
            -7.2519791
          ],
          [
            112.7353062,
            -7.2516039
          ],
          [
            112.7353979,
            -7.2513903
          ],
          [
            112.7354938,
            -7.2511421
          ],
          [
            112.7355646,
            -7.2509611
          ],
          [
            112.7356589,
            -7.2507323
          ],
          [
            112.7357241,
            -7.2505748
          ],
          [
            112.7358455,
            -7.2501792
          ],
          [
            112.7359425,
            -7.2498615
          ],
          [
            112.7360411,
            -7.249536
          ],
          [
            112.7361588,
            -7.2490835
          ],
          [
            112.7362186,
            -7.2488417
          ],
          [
            112.7362499,
            -7.2487596
          ],
          [
            112.7362738,
            -7.248704
          ],
          [
            112.7363121,
            -7.2486423
          ],
          [
            112.7364355,
            -7.2485184
          ],
          [
            112.7364778,
            -7.2484004
          ],
          [
            112.7365608,
            -7.2481679
          ],
          [
            112.7366105,
            -7.2479817
          ],
          [
            112.7366848,
            -7.247732
          ],
          [
            112.7367071,
            -7.2476571
          ],
          [
            112.7367187,
            -7.2476042
          ],
          [
            112.7367719,
            -7.2474322
          ],
          [
            112.7368214,
            -7.2472334
          ],
          [
            112.7368542,
            -7.2471046
          ]
        ]
      },
      "id": "way/254757803"
    },
    {
      "type": "Feature",
      "properties": {
        "@id": "way/254757812",
        "highway": "primary",
        "lanes": "3",
        "motorcycle": "yes",
        "name": "Jalan Gemblongan",
        "oneway": "yes",
        "smoothness": "good",
        "surface": "asphalt",
        "width": "12"
      },
      "geometry": {
        "type": "LineString",
        "coordinates": [
          [
            112.7368055,
            -7.2525484
          ],
          [
            112.7367782,
            -7.2531776
          ],
          [
            112.7367778,
            -7.2531971
          ],
          [
            112.7367742,
            -7.2533678
          ],
          [
            112.7367635,
            -7.2534932
          ],
          [
            112.7367624,
            -7.2539707
          ],
          [
            112.7367779,
            -7.2542103
          ],
          [
            112.7368137,
            -7.2545229
          ],
          [
            112.7368151,
            -7.2545492
          ],
          [
            112.7368167,
            -7.2545708
          ],
          [
            112.7368367,
            -7.2548416
          ],
          [
            112.7368447,
            -7.2549501
          ],
          [
            112.7368575,
            -7.2551318
          ],
          [
            112.7368777,
            -7.2552477
          ],
          [
            112.7368991,
            -7.2553534
          ],
          [
            112.7369128,
            -7.2554301
          ],
          [
            112.7369176,
            -7.2554665
          ],
          [
            112.7369223,
            -7.2554833
          ],
          [
            112.7370033,
            -7.2557715
          ]
        ]
      },
      "id": "way/254757812"
    },
    {
      "type": "Feature",
      "properties": {
        "@id": "way/255534313",
        "highway": "residential",
        "lanes": "1",
        "name": "Jalan Koblen Kidul",
        "oneway": "yes",
        "smoothness": "good",
        "surface": "asphalt",
        "width": "4"
      },
      "geometry": {
        "type": "LineString",
        "coordinates": [
          [
            112.7342485,
            -7.2545691
          ],
          [
            112.733528,
            -7.2543353
          ],
          [
            112.7332824,
            -7.2542716
          ],
          [
            112.7331151,
            -7.2542298
          ]
        ]
      },
      "id": "way/255534313"
    },
    {
      "type": "Feature",
      "properties": {
        "@id": "way/297150544",
        "highway": "secondary",
        "lanes": "3",
        "name": "Jalan Praban",
        "oneway": "yes",
        "smoothness": "good",
        "surface": "asphalt",
        "width": "4"
      },
      "geometry": {
        "type": "LineString",
        "coordinates": [
          [
            112.7342367,
            -7.2559863
          ],
          [
            112.7342737,
            -7.2559822
          ],
          [
            112.7344761,
            -7.255969
          ],
          [
            112.7346194,
            -7.2559623
          ],
          [
            112.734763,
            -7.2559663
          ],
          [
            112.7350151,
            -7.2559836
          ],
          [
            112.7353236,
            -7.2559955
          ],
          [
            112.7356602,
            -7.2559702
          ],
          [
            112.7357605,
            -7.2559603
          ],
          [
            112.7361664,
            -7.2559123
          ],
          [
            112.7362327,
            -7.2559051
          ],
          [
            112.7362945,
            -7.2558943
          ],
          [
            112.7367816,
            -7.2558228
          ],
          [
            112.7370033,
            -7.2557715
          ]
        ]
      },
      "id": "way/297150544"
    },
    {
      "type": "Feature",
      "properties": {
        "@id": "way/302020357",
        "highway": "service",
        "motor_vehicle": "no",
        "oneway": "yes",
        "surface": "asphalt"
      },
      "geometry": {
        "type": "LineString",
        "coordinates": [
          [
            112.7381638,
            -7.256047
          ],
          [
            112.7380997,
            -7.2561022
          ],
          [
            112.7380246,
            -7.2561142
          ],
          [
            112.7376502,
            -7.256091
          ],
          [
            112.7373484,
            -7.2560949
          ]
        ]
      },
      "id": "way/302020357"
    },
    {
      "type": "Feature",
      "properties": {
        "@id": "way/320100400",
        "highway": "primary",
        "name": "Jalan Bubutan",
        "oneway": "yes"
      },
      "geometry": {
        "type": "LineString",
        "coordinates": [
          [
            112.7341601,
            -7.2550321
          ],
          [
            112.734238,
            -7.2549545
          ],
          [
            112.7342494,
            -7.2549415
          ],
          [
            112.7343873,
            -7.2546524
          ],
          [
            112.734506,
            -7.2543687
          ],
          [
            112.7346439,
            -7.2539952
          ],
          [
            112.7347414,
            -7.2537228
          ],
          [
            112.7347651,
            -7.2536574
          ],
          [
            112.7348302,
            -7.2534935
          ],
          [
            112.7349756,
            -7.2530061
          ],
          [
            112.7350682,
            -7.2527195
          ],
          [
            112.7351024,
            -7.2525991
          ],
          [
            112.735159,
            -7.2524392
          ],
          [
            112.7351896,
            -7.2523467
          ],
          [
            112.7352861,
            -7.2520676
          ],
          [
            112.73543,
            -7.2516532
          ],
          [
            112.7354761,
            -7.2515203
          ],
          [
            112.7355402,
            -7.2513428
          ],
          [
            112.7356149,
            -7.2511623
          ],
          [
            112.7357225,
            -7.2509231
          ],
          [
            112.7358281,
            -7.2506267
          ],
          [
            112.7358698,
            -7.2504926
          ],
          [
            112.7359698,
            -7.2501923
          ],
          [
            112.7360213,
            -7.250015
          ],
          [
            112.7360532,
            -7.2498957
          ],
          [
            112.7361267,
            -7.2496492
          ],
          [
            112.7362096,
            -7.2493148
          ],
          [
            112.7362489,
            -7.2491806
          ],
          [
            112.7362945,
            -7.2490286
          ],
          [
            112.7363739,
            -7.248796
          ],
          [
            112.7364153,
            -7.2486442
          ],
          [
            112.7364355,
            -7.2485184
          ]
        ]
      },
      "id": "way/320100400"
    },
    {
      "type": "Feature",
      "properties": {
        "@id": "way/327922817",
        "highway": "secondary",
        "name": "Jalan Praban",
        "oneway": "yes"
      },
      "geometry": {
        "type": "LineString",
        "coordinates": [
          [
            112.7370033,
            -7.2557715
          ],
          [
            112.7369039,
            -7.2557438
          ],
          [
            112.7368684,
            -7.2557424
          ],
          [
            112.7368148,
            -7.2557477
          ],
          [
            112.7367221,
            -7.2557664
          ],
          [
            112.7362842,
            -7.2558196
          ],
          [
            112.7362331,
            -7.2558265
          ],
          [
            112.7361563,
            -7.2558349
          ],
          [
            112.7358507,
            -7.2558708
          ],
          [
            112.7354765,
            -7.2559157
          ],
          [
            112.7353142,
            -7.2559237
          ],
          [
            112.7349736,
            -7.2559067
          ],
          [
            112.7347589,
            -7.2558786
          ],
          [
            112.7346556,
            -7.2558586
          ],
          [
            112.7345231,
            -7.2558139
          ]
        ]
      },
      "id": "way/327922817"
    },
    {
      "type": "Feature",
      "properties": {
        "@id": "way/361505909",
        "highway": "secondary",
        "lanes": "3",
        "motorcycle": "yes",
        "name": "Jalan Genteng Kali",
        "oneway": "yes",
        "smoothness": "good",
        "surface": "asphalt",
        "width": "4"
      },
      "geometry": {
        "type": "LineString",
        "coordinates": [
          [
            112.7427434,
            -7.2592987
          ],
          [
            112.7431137,
            -7.2586867
          ],
          [
            112.7432626,
            -7.2584632
          ],
          [
            112.7433269,
            -7.2583475
          ],
          [
            112.7434131,
            -7.2581856
          ],
          [
            112.7435013,
            -7.2579889
          ],
          [
            112.7435701,
            -7.2577798
          ],
          [
            112.7435971,
            -7.2576546
          ],
          [
            112.7436103,
            -7.2575364
          ],
          [
            112.7435992,
            -7.2574163
          ],
          [
            112.7435209,
            -7.2571891
          ],
          [
            112.7435064,
            -7.2571541
          ],
          [
            112.7434827,
            -7.2571038
          ],
          [
            112.7434324,
            -7.2570286
          ],
          [
            112.7432898,
            -7.2568286
          ],
          [
            112.7431727,
            -7.256695
          ],
          [
            112.7428444,
            -7.2563854
          ],
          [
            112.742757,
            -7.256324
          ],
          [
            112.7426554,
            -7.2562659
          ],
          [
            112.7425618,
            -7.256223
          ],
          [
            112.7424887,
            -7.2561976
          ],
          [
            112.7423641,
            -7.256167
          ],
          [
            112.7420415,
            -7.2561325
          ],
          [
            112.741795,
            -7.2561092
          ],
          [
            112.7414444,
            -7.2560953
          ],
          [
            112.7410248,
            -7.2560854
          ],
          [
            112.7404039,
            -7.256114
          ],
          [
            112.7401824,
            -7.2561122
          ],
          [
            112.7399577,
            -7.256105
          ],
          [
            112.739905,
            -7.2561073
          ],
          [
            112.739817,
            -7.2561046
          ],
          [
            112.7396769,
            -7.2561003
          ],
          [
            112.7396422,
            -7.2560992
          ],
          [
            112.7395212,
            -7.2560954
          ],
          [
            112.7391827,
            -7.2560849
          ],
          [
            112.7389895,
            -7.256079
          ],
          [
            112.7388031,
            -7.2560758
          ],
          [
            112.7386967,
            -7.2560728
          ],
          [
            112.738454,
            -7.2560676
          ],
          [
            112.7383629,
            -7.2560636
          ],
          [
            112.738343,
            -7.2560627
          ],
          [
            112.7381638,
            -7.256047
          ],
          [
            112.7377482,
            -7.2559925
          ],
          [
            112.7376884,
            -7.2559855
          ],
          [
            112.737574,
            -7.2559586
          ],
          [
            112.7374171,
            -7.2559343
          ],
          [
            112.7372965,
            -7.2559023
          ],
          [
            112.7372452,
            -7.2558887
          ],
          [
            112.7371896,
            -7.2558648
          ],
          [
            112.7370923,
            -7.2558116
          ],
          [
            112.7370033,
            -7.2557715
          ]
        ]
      },
      "id": "way/361505909"
    },
    {
      "type": "Feature",
      "properties": {
        "@id": "way/361505923",
        "highway": "secondary_link",
        "oneway": "yes"
      },
      "geometry": {
        "type": "LineString",
        "coordinates": [
          [
            112.7369176,
            -7.2554665
          ],
          [
            112.7369114,
            -7.2554843
          ],
          [
            112.7368912,
            -7.2555428
          ],
          [
            112.7368563,
            -7.2556067
          ],
          [
            112.7368107,
            -7.2556599
          ],
          [
            112.7367221,
            -7.2557664
          ]
        ]
      },
      "id": "way/361505923"
    },
    {
      "type": "Feature",
      "properties": {
        "@id": "way/371483517",
        "highway": "secondary_link",
        "oneway": "yes"
      },
      "geometry": {
        "type": "LineString",
        "coordinates": [
          [
            112.7369223,
            -7.2554833
          ],
          [
            112.7370025,
            -7.2556027
          ],
          [
            112.7370575,
            -7.2556726
          ],
          [
            112.7371017,
            -7.2557045
          ],
          [
            112.737236,
            -7.2557656
          ]
        ]
      },
      "id": "way/371483517"
    },
    {
      "type": "Feature",
      "properties": {
        "@id": "way/371483518",
        "highway": "secondary_link",
        "lanes": "1",
        "oneway": "yes",
        "surface": "asphalt"
      },
      "geometry": {
        "type": "LineString",
        "coordinates": [
          [
            112.7367816,
            -7.2558228
          ],
          [
            112.7368711,
            -7.2558396
          ],
          [
            112.7369287,
            -7.2558675
          ],
          [
            112.7369997,
            -7.2559087
          ],
          [
            112.7370825,
            -7.255972
          ]
        ]
      },
      "id": "way/371483518"
    },
    {
      "type": "Feature",
      "properties": {
        "@id": "way/449171745",
        "alt_name": "Jalan Blauran 1",
        "highway": "living_street",
        "lanes": "1",
        "motorcar": "no",
        "motorcycle": "no",
        "name": "Jalan Blauran I",
        "oneway": "no",
        "smoothness": "bad",
        "surface": "concrete",
        "width": "2"
      },
      "geometry": {
        "type": "LineString",
        "coordinates": [
          [
            112.7338238,
            -7.2571112
          ],
          [
            112.7339051,
            -7.2571376
          ]
        ]
      },
      "id": "way/449171745"
    },
    {
      "type": "Feature",
      "properties": {
        "@id": "way/449648211",
        "highway": "residential",
        "lanes": "1",
        "motorcar": "destination",
        "motorcycle": "yes",
        "name": "Jalan Tanjung Anom",
        "oneway": "no",
        "smoothness": "intermediate",
        "surface": "asphalt",
        "width": "3"
      },
      "geometry": {
        "type": "LineString",
        "coordinates": [
          [
            112.7375645,
            -7.25698
          ],
          [
            112.7372749,
            -7.2570881
          ],
          [
            112.7370462,
            -7.2571659
          ],
          [
            112.7367418,
            -7.2572584
          ],
          [
            112.7365789,
            -7.2573089
          ],
          [
            112.7365413,
            -7.2573182
          ],
          [
            112.7364911,
            -7.2573208
          ],
          [
            112.7363026,
            -7.2573089
          ],
          [
            112.7361799,
            -7.2572883
          ],
          [
            112.735968,
            -7.2572298
          ],
          [
            112.7357978,
            -7.2571907
          ],
          [
            112.7355918,
            -7.257102
          ],
          [
            112.7353594,
            -7.2570016
          ],
          [
            112.735281,
            -7.2569678
          ]
        ]
      },
      "id": "way/449648211"
    },
    {
      "type": "Feature",
      "properties": {
        "@id": "way/455003061",
        "access": "permissive",
        "highway": "living_street",
        "lanes": "1",
        "motor_vehicle": "permissive",
        "motorcycle": "yes",
        "name": "Jalan Praban Kulon I",
        "oneway": "no",
        "smoothness": "good",
        "surface": "paving_stones",
        "width": "2"
      },
      "geometry": {
        "type": "LineString",
        "coordinates": [
          [
            112.734506,
            -7.2543687
          ],
          [
            112.7345426,
            -7.2543772
          ],
          [
            112.7346866,
            -7.2544108
          ],
          [
            112.7349708,
            -7.254476
          ],
          [
            112.7353813,
            -7.2545796
          ]
        ]
      },
      "id": "way/455003061"
    },
    {
      "type": "Feature",
      "properties": {
        "@id": "way/455010336",
        "access": "permissive",
        "highway": "living_street",
        "lanes": "1",
        "motor_vehicle": "permissive",
        "motorcycle": "yes",
        "name": "Jalan Praban Tengah",
        "oneway": "no",
        "smoothness": "good",
        "surface": "asphalt",
        "width": "3"
      },
      "geometry": {
        "type": "LineString",
        "coordinates": [
          [
            112.7352405,
            -7.255021
          ],
          [
            112.7344342,
            -7.2546727
          ]
        ]
      },
      "id": "way/455010336"
    },
    {
      "type": "Feature",
      "properties": {
        "@id": "way/455010337",
        "highway": "living_street",
        "lanes": "1",
        "motorcar": "no",
        "motorcycle": "yes",
        "name": "Jalan Praban Wetan I",
        "oneway": "no",
        "smoothness": "good",
        "surface": "paving_stones",
        "width": "2"
      },
      "geometry": {
        "type": "LineString",
        "coordinates": [
          [
            112.7362331,
            -7.2558265
          ],
          [
            112.7362268,
            -7.2557739
          ],
          [
            112.7362121,
            -7.2556519
          ],
          [
            112.7362017,
            -7.2554854
          ],
          [
            112.7361982,
            -7.2554761
          ],
          [
            112.7361935,
            -7.255472
          ],
          [
            112.7361848,
            -7.2554681
          ]
        ]
      },
      "id": "way/455010337"
    },
    {
      "type": "Feature",
      "properties": {
        "@id": "way/458450725",
        "highway": "living_street",
        "lanes": "1",
        "motorcar": "no",
        "motorcycle": "yes",
        "name": "Jalan Sawahan Templek Gang III",
        "oneway": "no",
        "smoothness": "intermediate",
        "surface": "paving_stones",
        "width": "1"
      },
      "geometry": {
        "type": "LineString",
        "coordinates": [
          [
            112.7336771,
            -7.2574142
          ],
          [
            112.7335393,
            -7.2573435
          ],
          [
            112.7333897,
            -7.2572949
          ],
          [
            112.733271,
            -7.2572696
          ],
          [
            112.7331604,
            -7.2572503
          ],
          [
            112.7330337,
            -7.2572184
          ],
          [
            112.7329894,
            -7.2572011
          ],
          [
            112.7329794,
            -7.2571965
          ]
        ]
      },
      "id": "way/458450725"
    },
    {
      "type": "Feature",
      "properties": {
        "@id": "way/458450726",
        "highway": "living_street",
        "lanes": "1",
        "motorcycle": "yes",
        "name": "Jalan Sawahan Templek Gang II",
        "oneway": "no",
        "smoothness": "intermediate",
        "surface": "paving_stones",
        "width": "2"
      },
      "geometry": {
        "type": "LineString",
        "coordinates": [
          [
            112.7329588,
            -7.2574056
          ],
          [
            112.7335634,
            -7.2576499
          ]
        ]
      },
      "id": "way/458450726"
    },
    {
      "type": "Feature",
      "properties": {
        "@id": "way/458450727",
        "highway": "living_street",
        "lanes": "1",
        "motorcar": "no",
        "motorcycle": "yes",
        "name": "Jalan Sawahan Templek Gang IV",
        "oneway": "no",
        "smoothness": "intermediate",
        "surface": "paving_stones",
        "width": "2"
      },
      "geometry": {
        "type": "LineString",
        "coordinates": [
          [
            112.7338588,
            -7.2570438
          ],
          [
            112.7336741,
            -7.256971
          ],
          [
            112.7335963,
            -7.2569483
          ],
          [
            112.733393,
            -7.2569131
          ],
          [
            112.733253,
            -7.2568918
          ],
          [
            112.7331416,
            -7.2568752
          ],
          [
            112.7330819,
            -7.2568592
          ],
          [
            112.7330363,
            -7.2568526
          ],
          [
            112.7329982,
            -7.2568466
          ],
          [
            112.7329197,
            -7.2568313
          ],
          [
            112.7328225,
            -7.256808
          ],
          [
            112.7325917,
            -7.2567641
          ],
          [
            112.732571,
            -7.2567461
          ]
        ]
      },
      "id": "way/458450727"
    },
    {
      "type": "Feature",
      "properties": {
        "@id": "way/583621613",
        "access": "private",
        "highway": "service",
        "oneway": "yes"
      },
      "geometry": {
        "type": "LineString",
        "coordinates": [
          [
            112.7340298,
            -7.2552847
          ],
          [
            112.7339926,
            -7.2552448
          ],
          [
            112.7337599,
            -7.254994
          ],
          [
            112.7337391,
            -7.2549475
          ],
          [
            112.7337364,
            -7.2548843
          ],
          [
            112.7337391,
            -7.2547652
          ],
          [
            112.7337277,
            -7.2546096
          ],
          [
            112.7337009,
            -7.2545524
          ],
          [
            112.7336633,
            -7.2545018
          ],
          [
            112.7336164,
            -7.2544606
          ],
          [
            112.7335226,
            -7.254414
          ],
          [
            112.7333542,
            -7.2543714
          ],
          [
            112.7332594,
            -7.2543445
          ],
          [
            112.7330968,
            -7.2542937
          ]
        ]
      },
      "id": "way/583621613"
    },
    {
      "type": "Feature",
      "properties": {
        "@id": "way/583621630",
        "alt_name": "Jalan Kebangsren Gang 6",
        "highway": "living_street",
        "lanes": "1",
        "motorcar": "no",
        "motorcycle": "no",
        "name": "Jalan Kebangsren Gang VI",
        "oneway": "no",
        "smoothness": "good",
        "surface": "paving_stones",
        "width": "2"
      },
      "geometry": {
        "type": "LineString",
        "coordinates": [
          [
            112.7361497,
            -7.2576022
          ],
          [
            112.7360934,
            -7.2578277
          ],
          [
            112.7360116,
            -7.2581803
          ],
          [
            112.7358912,
            -7.2586493
          ],
          [
            112.7358799,
            -7.2587263
          ]
        ]
      },
      "id": "way/583621630"
    },
    {
      "type": "Feature",
      "properties": {
        "@id": "way/583621637",
        "access": "destination",
        "highway": "service"
      },
      "geometry": {
        "type": "LineString",
        "coordinates": [
          [
            112.7341421,
            -7.2553353
          ],
          [
            112.7342614,
            -7.255336
          ],
          [
            112.7344224,
            -7.2553093
          ],
          [
            112.734466,
            -7.2553047
          ],
          [
            112.7344982,
            -7.2553094
          ],
          [
            112.7346249,
            -7.2553599
          ],
          [
            112.7346597,
            -7.2553612
          ],
          [
            112.7346785,
            -7.2553499
          ],
          [
            112.7347241,
            -7.2553
          ],
          [
            112.7348033,
            -7.2552016
          ],
          [
            112.7348436,
            -7.2551699
          ]
        ]
      },
      "id": "way/583621637"
    },
    {
      "type": "Feature",
      "properties": {
        "@id": "way/583872435",
        "access": "private",
        "highway": "residential"
      },
      "geometry": {
        "type": "LineString",
        "coordinates": [
          [
            112.7357133,
            -7.2580599
          ],
          [
            112.7354916,
            -7.2579714
          ],
          [
            112.7354829,
            -7.2579528
          ],
          [
            112.7354852,
            -7.2579315
          ]
        ]
      },
      "id": "way/583872435"
    },
    {
      "type": "Feature",
      "properties": {
        "@id": "way/584497529",
        "access": "private",
        "highway": "service"
      },
      "geometry": {
        "type": "LineString",
        "coordinates": [
          [
            112.7336016,
            -7.2578018
          ],
          [
            112.7341226,
            -7.2580539
          ],
          [
            112.7342306,
            -7.2580925
          ]
        ]
      },
      "id": "way/584497529"
    },
    {
      "type": "Feature",
      "properties": {
        "@id": "way/737446961",
        "highway": "secondary_link",
        "lane_markings": "no",
        "oneway": "yes",
        "surface": "asphalt"
      },
      "geometry": {
        "type": "LineString",
        "coordinates": [
          [
            112.7376884,
            -7.2559855
          ],
          [
            112.7375894,
            -7.2559991
          ],
          [
            112.7375076,
            -7.2560198
          ],
          [
            112.7374657,
            -7.2560381
          ],
          [
            112.7373484,
            -7.2560949
          ]
        ]
      },
      "id": "way/737446961"
    },
    {
      "type": "Feature",
      "properties": {
        "@id": "way/817125964",
        "highway": "living_street",
        "motorcycle": "yes"
      },
      "geometry": {
        "type": "LineString",
        "coordinates": [
          [
            112.739189,
            -7.255506
          ],
          [
            112.7390458,
            -7.2555328
          ],
          [
            112.7388789,
            -7.2555355
          ],
          [
            112.7387515,
            -7.2555315
          ],
          [
            112.7385872,
            -7.2555096
          ],
          [
            112.7384993,
            -7.255483
          ],
          [
            112.7383699,
            -7.2554364
          ],
          [
            112.7382781,
            -7.2553965
          ],
          [
            112.7381976,
            -7.2553459
          ],
          [
            112.7381393,
            -7.2552734
          ],
          [
            112.7380011,
            -7.2550366
          ],
          [
            112.7379408,
            -7.2548943
          ],
          [
            112.7379173,
            -7.2548105
          ],
          [
            112.7378925,
            -7.2546654
          ],
          [
            112.7378798,
            -7.2544626
          ],
          [
            112.7378838,
            -7.2544168
          ],
          [
            112.7378888,
            -7.2544002
          ],
          [
            112.7378979,
            -7.2543841
          ]
        ]
      },
      "id": "way/817125964"
    },
    {
      "type": "Feature",
      "properties": {
        "@id": "way/817125965",
        "highway": "secondary_link",
        "lane_markings": "no",
        "oneway": "yes",
        "surface": "asphalt"
      },
      "geometry": {
        "type": "LineString",
        "coordinates": [
          [
            112.7373484,
            -7.2560949
          ],
          [
            112.7373417,
            -7.2560977
          ],
          [
            112.7373137,
            -7.2561096
          ],
          [
            112.7372787,
            -7.2561243
          ],
          [
            112.7372452,
            -7.2561455
          ],
          [
            112.7371723,
            -7.2561877
          ]
        ]
      },
      "id": "way/817125965"
    },
    {
      "type": "Feature",
      "properties": {
        "@id": "way/818994577",
        "access": "private",
        "highway": "service",
        "oneway": "yes"
      },
      "geometry": {
        "type": "LineString",
        "coordinates": [
          [
            112.7341421,
            -7.2553353
          ],
          [
            112.7340298,
            -7.2552847
          ]
        ]
      },
      "id": "way/818994577"
    },
    {
      "type": "Feature",
      "properties": {
        "@id": "way/845603614",
        "access": "private",
        "highway": "residential"
      },
      "geometry": {
        "type": "LineString",
        "coordinates": [
          [
            112.7354852,
            -7.2579315
          ],
          [
            112.7357467,
            -7.2573102
          ],
          [
            112.7357826,
            -7.2572263
          ],
          [
            112.7357978,
            -7.2571907
          ]
        ]
      },
      "id": "way/845603614"
    },
    {
      "type": "Feature",
      "properties": {
        "@id": "way/991093853",
        "highway": "living_street",
        "motor_vehicle": "private",
        "motorcycle": "yes"
      },
      "geometry": {
        "type": "LineString",
        "coordinates": [
          [
            112.7348436,
            -7.2551699
          ],
          [
            112.7348931,
            -7.2551311
          ],
          [
            112.734928,
            -7.2551184
          ],
          [
            112.7349575,
            -7.2551191
          ],
          [
            112.7350024,
            -7.2551272
          ],
          [
            112.7350272,
            -7.2551331
          ],
          [
            112.7350587,
            -7.255145
          ],
          [
            112.7350835,
            -7.255159
          ],
          [
            112.7350956,
            -7.2551677
          ],
          [
            112.7351237,
            -7.255188
          ]
        ]
      },
      "id": "way/991093853"
    },
    {
      "type": "Feature",
      "properties": {
        "@id": "way/991093854",
        "access": "destination",
        "highway": "service"
      },
      "geometry": {
        "type": "LineString",
        "coordinates": [
          [
            112.7342494,
            -7.2549415
          ],
          [
            112.7345183,
            -7.2550426
          ],
          [
            112.7348436,
            -7.2551699
          ]
        ]
      },
      "id": "way/991093854"
    },
    {
      "type": "Feature",
      "properties": {
        "@id": "way/1090679134",
        "footway": "crossing",
        "highway": "footway"
      },
      "geometry": {
        "type": "LineString",
        "coordinates": [
          [
            112.7373111,
            -7.2557754
          ],
          [
            112.7372965,
            -7.2559023
          ],
          [
            112.7372907,
            -7.2559536
          ],
          [
            112.7373103,
            -7.2560376
          ],
          [
            112.7373417,
            -7.2560977
          ]
        ]
      },
      "id": "way/1090679134"
    },
    {
      "type": "Feature",
      "properties": {
        "@id": "way/1090679185",
        "footway": "crossing",
        "highway": "footway"
      },
      "geometry": {
        "type": "LineString",
        "coordinates": [
          [
            112.7369223,
            -7.2554833
          ],
          [
            112.7369114,
            -7.2554843
          ]
        ]
      },
      "id": "way/1090679185"
    },
    {
      "type": "Feature",
      "properties": {
        "@id": "way/1116041587",
        "access": "permissive",
        "highway": "living_street",
        "lanes": "1",
        "motor_vehicle": "permissive",
        "name": "Jalan Praban Tengah",
        "oneway": "no",
        "smoothness": "good",
        "surface": "asphalt",
        "width": "3"
      },
      "geometry": {
        "type": "LineString",
        "coordinates": [
          [
            112.7344342,
            -7.2546727
          ],
          [
            112.7343873,
            -7.2546524
          ]
        ]
      },
      "id": "way/1116041587"
    },
    {
      "type": "Feature",
      "properties": {
        "@id": "way/1116041588",
        "footway": "crossing",
        "highway": "footway"
      },
      "geometry": {
        "type": "LineString",
        "coordinates": [
          [
            112.7342414,
            -7.2556822
          ],
          [
            112.7342737,
            -7.2559822
          ]
        ]
      },
      "id": "way/1116041588"
    },
    {
      "type": "Feature",
      "properties": {
        "@id": "way/1116041589",
        "footway": "crossing",
        "highway": "footway"
      },
      "geometry": {
        "type": "LineString",
        "coordinates": [
          [
            112.7361664,
            -7.2559123
          ],
          [
            112.7361563,
            -7.2558349
          ]
        ]
      },
      "id": "way/1116041589"
    },
    {
      "type": "Feature",
      "properties": {
        "@id": "way/1116088958",
        "highway": "living_street",
        "motorcar": "no",
        "motorcycle": "yes",
        "name": "Jalan Gemblongan II",
        "width": "1"
      },
      "geometry": {
        "type": "LineString",
        "coordinates": [
          [
            112.7369128,
            -7.2554301
          ],
          [
            112.7369666,
            -7.2554233
          ],
          [
            112.7372494,
            -7.2553878
          ],
          [
            112.7374077,
            -7.2553626
          ],
          [
            112.7375995,
            -7.2553253
          ],
          [
            112.7376934,
            -7.2553
          ]
        ]
      },
      "id": "way/1116088958"
    },
    {
      "type": "Feature",
      "properties": {
        "@id": "way/1116088959",
        "access": "destination",
        "highway": "living_street",
        "lanes": "1",
        "motorcar": "no",
        "motorcycle": "yes",
        "name": "Jalan Praban Wetan III",
        "oneway": "no",
        "smoothness": "good",
        "surface": "paving_stones",
        "width": "2"
      },
      "geometry": {
        "type": "LineString",
        "coordinates": [
          [
            112.7368991,
            -7.2553534
          ],
          [
            112.7368437,
            -7.2553509
          ]
        ]
      },
      "id": "way/1116088959"
    },
    {
      "type": "Feature",
      "properties": {
        "@id": "way/1116088960",
        "highway": "living_street",
        "motorcar": "no",
        "motorcycle": "yes",
        "name": "Jalan Gemblongan III",
        "oneway": "no",
        "smoothness": "good",
        "surface": "paving_stones",
        "width": "2"
      },
      "geometry": {
        "type": "LineString",
        "coordinates": [
          [
            112.7368777,
            -7.2552477
          ],
          [
            112.7369479,
            -7.2552332
          ],
          [
            112.7371243,
            -7.2551968
          ],
          [
            112.7373518,
            -7.2551253
          ],
          [
            112.7374705,
            -7.2550857
          ],
          [
            112.7375543,
            -7.2550617
          ],
          [
            112.7376085,
            -7.2550472
          ]
        ]
      },
      "id": "way/1116088960"
    },
    {
      "type": "Feature",
      "properties": {
        "@id": "way/1116088961",
        "access": "destination",
        "highway": "residential",
        "lanes": "1",
        "motorcycle": "yes",
        "name": "Jalan Praban Wetan IV",
        "oneway": "no",
        "smoothness": "good",
        "surface": "paving_stones",
        "width": "3"
      },
      "geometry": {
        "type": "LineString",
        "coordinates": [
          [
            112.7368447,
            -7.2549501
          ],
          [
            112.7368028,
            -7.25495
          ]
        ]
      },
      "id": "way/1116088961"
    },
    {
      "type": "Feature",
      "properties": {
        "@id": "way/1116088962",
        "highway": "living_street",
        "motorcar": "no",
        "motorcycle": "yes",
        "name": "Jalan Gemblongan IV",
        "oneway": "no",
        "smoothness": "good",
        "surface": "paving_stones",
        "width": "1.5"
      },
      "geometry": {
        "type": "LineString",
        "coordinates": [
          [
            112.7368367,
            -7.2548416
          ],
          [
            112.736872,
            -7.2548343
          ],
          [
            112.7370339,
            -7.2548006
          ],
          [
            112.7371898,
            -7.2547681
          ],
          [
            112.7373749,
            -7.2547235
          ],
          [
            112.7374674,
            -7.2547075
          ],
          [
            112.7375042,
            -7.254704
          ]
        ]
      },
      "id": "way/1116088962"
    },
    {
      "type": "Feature",
      "properties": {
        "@id": "way/1116088963",
        "access": "destination",
        "highway": "residential",
        "lanes": "1",
        "motorcycle": "yes",
        "name": "Jalan Praban Wetan V",
        "oneway": "no",
        "smoothness": "good",
        "surface": "paving_stones",
        "width": "2"
      },
      "geometry": {
        "type": "LineString",
        "coordinates": [
          [
            112.7368167,
            -7.2545708
          ],
          [
            112.736772,
            -7.2545719
          ]
        ]
      },
      "id": "way/1116088963"
    },
    {
      "type": "Feature",
      "properties": {
        "@id": "way/1116088964",
        "highway": "living_street",
        "motorcar": "no",
        "motorcycle": "yes",
        "name": "Jalan Gemblongan V",
        "oneway": "no",
        "smoothness": "good",
        "surface": "paving_stones",
        "width": "1.5"
      },
      "geometry": {
        "type": "LineString",
        "coordinates": [
          [
            112.7368137,
            -7.2545229
          ],
          [
            112.7368437,
            -7.2545203
          ],
          [
            112.7371972,
            -7.2544811
          ],
          [
            112.7373433,
            -7.2544524
          ],
          [
            112.7374747,
            -7.2544379
          ]
        ]
      },
      "id": "way/1116088964"
    },
    {
      "type": "Feature",
      "properties": {
        "@id": "way/1116358065",
        "alt_name": "Jalan Blauran 3",
        "highway": "living_street",
        "lanes": "1",
        "motorcar": "no",
        "motorcycle": "yes",
        "name": "Jalan Blauran III",
        "oneway": "no",
        "smoothness": "intermediate",
        "surface": "concrete",
        "width": "2"
      },
      "geometry": {
        "type": "LineString",
        "coordinates": [
          [
            112.7341233,
            -7.2566504
          ],
          [
            112.7340422,
            -7.2566313
          ]
        ]
      },
      "id": "way/1116358065"
    },
    {
      "type": "Feature",
      "properties": {
        "@id": "way/1116358066",
        "highway": "living_street",
        "lanes": "1",
        "motorcar": "no",
        "motorcycle": "no",
        "name": "Jalan Blauran II",
        "oneway": "no",
        "smoothness": "intermediate",
        "surface": "paving_stones",
        "width": "2"
      },
      "geometry": {
        "type": "LineString",
        "coordinates": [
          [
            112.7340214,
            -7.2569038
          ],
          [
            112.7339403,
            -7.2568683
          ]
        ]
      },
      "id": "way/1116358066"
    },
    {
      "type": "Feature",
      "properties": {
        "@id": "way/1116358067",
        "access": "private",
        "alt_name": "Jalan Blauran 1",
        "highway": "living_street",
        "lanes": "1",
        "motorcar": "no",
        "motorcycle": "no",
        "name": "Jalan Blauran I",
        "oneway": "no",
        "smoothness": "bad",
        "surface": "concrete",
        "width": "2"
      },
      "geometry": {
        "type": "LineString",
        "coordinates": [
          [
            112.7339051,
            -7.2571376
          ],
          [
            112.7350717,
            -7.2574843
          ]
        ]
      },
      "id": "way/1116358067"
    },
    {
      "type": "Feature",
      "properties": {
        "@id": "way/1116358068",
        "access": "private",
        "highway": "service"
      },
      "geometry": {
        "type": "LineString",
        "coordinates": [
          [
            112.7335269,
            -7.2577265
          ],
          [
            112.7335445,
            -7.2577342
          ],
          [
            112.7335789,
            -7.2577563
          ],
          [
            112.7336016,
            -7.2578018
          ]
        ]
      },
      "id": "way/1116358068"
    },
    {
      "type": "Feature",
      "properties": {
        "@id": "way/1116373503",
        "highway": "living_street",
        "motorcycle": "yes",
        "name": "Jalan Blauran Gang V"
      },
      "geometry": {
        "type": "LineString",
        "coordinates": [
          [
            112.7343094,
            -7.2561271
          ],
          [
            112.7342137,
            -7.2560977
          ]
        ]
      },
      "id": "way/1116373503"
    },
    {
      "type": "Feature",
      "properties": {
        "@id": "way/1116373504",
        "highway": "living_street",
        "lanes": "1",
        "motorcycle": "yes",
        "name": "Jalan Blauran IV",
        "oneway": "no",
        "smoothness": "intermediate",
        "surface": "paving_stones",
        "width": "2"
      },
      "geometry": {
        "type": "LineString",
        "coordinates": [
          [
            112.7342418,
            -7.2563944
          ],
          [
            112.7341627,
            -7.2563731
          ]
        ]
      },
      "id": "way/1116373504"
    },
    {
      "type": "Feature",
      "properties": {
        "@id": "way/1118759007",
        "highway": "living_street",
        "motorcycle": "yes"
      },
      "geometry": {
        "type": "LineString",
        "coordinates": [
          [
            112.7378979,
            -7.2543841
          ],
          [
            112.737914,
            -7.2543708
          ],
          [
            112.7379326,
            -7.2543644
          ],
          [
            112.7381782,
            -7.2542843
          ]
        ]
      },
      "id": "way/1118759007"
    },
    {
      "type": "Feature",
      "properties": {
        "@id": "way/1149026350",
        "access": "private",
        "highway": "service",
        "oneway": "yes"
      },
      "geometry": {
        "type": "LineString",
        "coordinates": [
          [
            112.7333883,
            -7.2559918
          ],
          [
            112.7333911,
            -7.2559464
          ],
          [
            112.7333954,
            -7.2558814
          ],
          [
            112.7334008,
            -7.2558674
          ],
          [
            112.7334095,
            -7.2558591
          ],
          [
            112.7334219,
            -7.2558555
          ],
          [
            112.7334369,
            -7.2558527
          ],
          [
            112.7334534,
            -7.2558521
          ],
          [
            112.7338994,
            -7.2558694
          ],
          [
            112.7339597,
            -7.2558535
          ],
          [
            112.7339946,
            -7.2558175
          ],
          [
            112.7340201,
            -7.2557351
          ],
          [
            112.7340227,
            -7.2556878
          ],
          [
            112.7340201,
            -7.255614
          ],
          [
            112.7340187,
            -7.2555621
          ],
          [
            112.7340261,
            -7.255463
          ],
          [
            112.7340298,
            -7.2552847
          ]
        ]
      },
      "id": "way/1149026350"
    },
    {
      "type": "Feature",
      "properties": {
        "@id": "way/1150045508",
        "highway": "primary",
        "lanes": "4",
        "motorcycle": "yes",
        "name": "Jalan Tunjungan",
        "oneway": "yes",
        "smoothness": "good",
        "surface": "asphalt",
        "width": "4"
      },
      "geometry": {
        "type": "LineString",
        "coordinates": [
          [
            112.7370033,
            -7.2557715
          ],
          [
            112.7370825,
            -7.255972
          ]
        ]
      },
      "id": "way/1150045508"
    },
    {
      "type": "Feature",
      "properties": {
        "@id": "way/1159838808",
        "access": "permissive",
        "highway": "living_street",
        "lanes": "1",
        "motorcar": "no",
        "name": "Jalan Praban Kulon I",
        "oneway": "no",
        "smoothness": "good",
        "surface": "paving_stones",
        "width": "2"
      },
      "geometry": {
        "type": "LineString",
        "coordinates": [
          [
            112.7353813,
            -7.2545796
          ],
          [
            112.7354598,
            -7.2546102
          ],
          [
            112.7354819,
            -7.2546219
          ]
        ]
      },
      "id": "way/1159838808"
    },
    {
      "type": "Feature",
      "properties": {
        "@id": "way/1171248043",
        "highway": "living_street",
        "motorcycle": "yes"
      },
      "geometry": {
        "type": "LineString",
        "coordinates": [
          [
            112.7382376,
            -7.2559088
          ],
          [
            112.7381533,
            -7.2557949
          ],
          [
            112.7379951,
            -7.255622
          ],
          [
            112.7378409,
            -7.2554976
          ],
          [
            112.7376934,
            -7.2553
          ],
          [
            112.7376085,
            -7.2550472
          ],
          [
            112.7375472,
            -7.2548371
          ],
          [
            112.7375042,
            -7.254704
          ],
          [
            112.7374747,
            -7.2544379
          ],
          [
            112.7375012,
            -7.254103
          ]
        ]
      },
      "id": "way/1171248043"
    },
    {
      "type": "Feature",
      "properties": {
        "@id": "way/1219424822",
        "access": "private",
        "highway": "service"
      },
      "geometry": {
        "type": "LineString",
        "coordinates": [
          [
            112.7335789,
            -7.2577563
          ],
          [
            112.7336338,
            -7.2577272
          ],
          [
            112.73368,
            -7.2576907
          ],
          [
            112.7337334,
            -7.2575848
          ],
          [
            112.7338437,
            -7.2572726
          ],
          [
            112.7338769,
            -7.2572454
          ],
          [
            112.7339181,
            -7.2572284
          ],
          [
            112.7340626,
            -7.2572416
          ],
          [
            112.7344358,
            -7.2573455
          ],
          [
            112.7344532,
            -7.2573641
          ],
          [
            112.7344526,
            -7.2574107
          ],
          [
            112.7344707,
            -7.2574432
          ],
          [
            112.7349186,
            -7.2576109
          ],
          [
            112.7349273,
            -7.2576375
          ],
          [
            112.7349246,
            -7.257668
          ],
          [
            112.7346792,
            -7.2581238
          ],
          [
            112.7346081,
            -7.2581716
          ],
          [
            112.7345525,
            -7.258169
          ],
          [
            112.7344894,
            -7.2581636
          ],
          [
            112.7342306,
            -7.2580925
          ]
        ]
      },
      "id": "way/1219424822"
    },
    {
      "type": "Feature",
      "properties": {
        "@id": "way/1345360220",
        "highway": "living_street",
        "motorcar": "no",
        "motorcycle": "destination"
      },
      "geometry": {
        "type": "LineString",
        "coordinates": [
          [
            112.7353594,
            -7.2570016
          ],
          [
            112.735492,
            -7.2566603
          ],
          [
            112.7356293,
            -7.256294
          ],
          [
            112.7357605,
            -7.2559603
          ]
        ]
      },
      "id": "way/1345360220"
    },
    {
      "type": "Feature",
      "properties": {
        "@id": "way/1414864266",
        "highway": "footway"
      },
      "geometry": {
        "type": "LineString",
        "coordinates": [
          [
            112.737879,
            -7.2577509
          ],
          [
            112.7379476,
            -7.2577306
          ]
        ]
      },
      "id": "way/1414864266"
    },
    {
      "type": "Feature",
      "properties": {
        "@id": "way/1414864267",
        "covered": "yes",
        "highway": "footway"
      },
      "geometry": {
        "type": "LineString",
        "coordinates": [
          [
            112.7378311,
            -7.2577647
          ],
          [
            112.737879,
            -7.2577509
          ]
        ]
      },
      "id": "way/1414864267"
    },
    {
      "type": "Feature",
      "properties": {
        "@id": "way/1414864268",
        "highway": "footway"
      },
      "geometry": {
        "type": "LineString",
        "coordinates": [
          [
            112.7371839,
            -7.2578644
          ],
          [
            112.7373426,
            -7.2578324
          ],
          [
            112.7374402,
            -7.2578121
          ],
          [
            112.7374858,
            -7.2578121
          ],
          [
            112.7375482,
            -7.2578078
          ],
          [
            112.7378311,
            -7.2577647
          ]
        ]
      },
      "id": "way/1414864268"
    }
  ]
}